{"type": "FeatureCollection", "features": [ {"type": "Feature", "properties": {"norad_id": 34546, "name": "COSMOS 2251 DEB", "group": "cosmos-2251-debris", "lat": 68.57465941609141, "lon": 37.393650490597395, "alt_km": 742.8191927295193, "timestamp": "2025-12-04T15:47:54.493656+00:00", "meta": {"OBJECT_NAME": "COSMOS 2251 DEB", "OBJECT_ID": "1993-036UG", "EPOCH": "2025-12-04T06:02:54.859776", "MEAN_MOTION": 14.45348239, "ECCENTRICITY": 0.00217218, "INCLINATION": 74.0319, "RA_OF_ASC_NODE": 265.01, "ARG_OF_PERICENTER": 339.7412, "MEAN_ANOMALY": 171.5486, "EPHEMERIS_TYPE": 0, "CLASSIFICATION_TYPE": "U", "NORAD_CAT_ID": 34546, "ELEMENT_SET_NO": 999, "REV_AT_EPOCH": 87903, "BSTAR": 0.0016400892, "MEAN_MOTION_DOT": 5.759e-05, "MEAN_MOTION_DDOT": 0}, "tle": {"line1": "1 34546U 93036UG  25338.25202384  .00005759  00000+0  16401-2 0  9999", "line2": "2 34546  74.0319 265.0100 0021721 339.7412 171.5486 14.45348239879036"}}, "geometry": {"type": "Point", "coordinates": [37.393650490597395, 68.57465941609141]}}, {"type": "Feature", "properties": {"norad_id": 34547, "name": "COSMOS 2251 DEB", "group": "cosmos-2251-debris", "lat": -51.032130491413284, "lon": -42.81096918857923, "alt_km": 650.8451450372304, "timestamp": "2025-12-04T15:47:54.493667+00:00", "meta": {"OBJECT_NAME": "COSMOS 2251 DEB", "OBJECT_ID": "1993-036UH", "EPOCH": "2025-12-02T10:32:28.829184", "MEAN_MOTION": 14.71896843, "ECCENTRICITY": 0.00189154, "INCLINATION": 74.0295, "RA_OF_ASC_NODE": 120.7688, "ARG_OF_PERICENTER": 201.1584, "MEAN_ANOMALY": 158.8808, "EPHEMERIS_TYPE": 0, "CLASSIFICATION_TYPE": "U", "NORAD_CAT_ID": 34547, "ELEMENT_SET_NO": 999, "REV_AT_EPOCH": 88370, "BSTAR": 0.0023605263, "MEAN_MOTION_DOT": 0.00014826, "MEAN_MOTION_DDOT": 0}, "tle": {"line1": "1 34547U 93036UH  25336.43922256  .00014826  00000+0  23605-2 0  9994", "line2": "2 34547  74.0295 120.7688 0018915 201.1584 158.8808 14.71896843883704"}}, "geometry": {"type": "Point", "coordinates": [-42.81096918857923, -51.032130491413284]}}, {"type": "Feature", "properties": {"norad_id": 34553, "name": "COSMOS 2251 DEB", "group": "cosmos-2251-debris", "lat": -11.71352141842938, "lon": 30.669032895900344, "alt_km": 705.7103142942724, "timestamp": "2025-12-04T15:47:54.493677+00:00", "meta": {"OBJECT_NAME": "COSMOS 2251 DEB", "OBJECT_ID": "1993-036UP", "EPOCH": "2025-12-04T02:26:45.330720", "MEAN_MOTION": 14.5758999, "ECCENTRICITY": 0.00196348, "INCLINATION": 74.0255, "RA_OF_ASC_NODE": 208.3219, "ARG_OF_PERICENTER": 286.5079, "MEAN_ANOMALY": 227.5957, "EPHEMERIS_TYPE": 0, "CLASSIFICATION_TYPE": "U", "NORAD_CAT_ID": 34553, "ELEMENT_SET_NO": 999, "REV_AT_EPOCH": 87970, "BSTAR": 0.0025180107, "MEAN_MOTION_DOT": 0.00011487, "MEAN_MOTION_DDOT": 0}, "tle": {"line1": "1 34553U 93036UP  25338.10191355  .00011487  00000+0  25180-2 0  9995", "line2": "2 34553  74.0255 208.3219 0019634 286.5079 227.5957 14.57589990879705"}}, "geometry": {"type": "Point", "coordinates": [30.669032895900344, -11.71352141842938]}}, {"type": "Feature", "properties": {"norad_id": 34554, "name": "COSMOS 2251 DEB", "group": "cosmos-2251-debris", "lat": 26.565529359256324, "lon": 125.64615045808523, "alt_km": 775.2397738997306, "timestamp": "2025-12-04T15:47:54.493687+00:00", "meta": {"OBJECT_NAME": "COSMOS 2251 DEB", "OBJECT_ID": "1993-036UQ", "EPOCH": "2025-12-02T18:19:59.022048", "MEAN_MOTION": 14.37902673, "ECCENTRICITY": 0.00225472, "INCLINATION": 74.0383, "RA_OF_ASC_NODE": 317.3604, "ARG_OF_PERICENTER": 22.1475, "MEAN_ANOMALY": 47.5558, "EPHEMERIS_TYPE": 0, "CLASSIFICATION_TYPE": "U", "NORAD_CAT_ID": 34554, "ELEMENT_SET_NO": 999, "REV_AT_EPOCH": 87612, "BSTAR": 0.0004572497, "MEAN_MOTION_DOT": 1.358e-05, "MEAN_MOTION_DDOT": 0}, "tle": {"line1": "1 34554U 93036UQ  25336.76387757  .00001358  00000+0  45725-3 0  9993", "line2": "2 34554  74.0383 317.3604 0022547  22.1475  47.5558 14.37902673876123"}}, "geometry": {"type": "Point", "coordinates": [125.64615045808523, 26.565529359256324]}}, {"type": "Feature", "properties": {"norad_id": 34556, "name": "COSMOS 2251 DEB", "group": "cosmos-2251-debris", "lat": -54.151296464935186, "lon": -15.891830582928051, "alt_km": 639.2053910169107, "timestamp": "2025-12-04T15:47:54.493698+00:00", "meta": {"OBJECT_NAME": "COSMOS 2251 DEB", "OBJECT_ID": "1993-036US", "EPOCH": "2025-12-04T05:46:16.106880", "MEAN_MOTION": 14.77367737, "ECCENTRICITY": 0.00090351, "INCLINATION": 74.0147, "RA_OF_ASC_NODE": 141.5531, "ARG_OF_PERICENTER": 200.4415, "MEAN_ANOMALY": 335.7016, "EPHEMERIS_TYPE": 0, "CLASSIFICATION_TYPE": "U", "NORAD_CAT_ID": 34556, "ELEMENT_SET_NO": 999, "REV_AT_EPOCH": 88203, "BSTAR": 0.0054565447, "MEAN_MOTION_DOT": 0.00039018, "MEAN_MOTION_DDOT": 0}, "tle": {"line1": "1 34556U 93036US  25338.24046420  .00039018  00000+0  54565-2 0  9994", "line2": "2 34556  74.0147 141.5531 0009035 200.4415 335.7016 14.77367737882039"}}, "geometry": {"type": "Point", "coordinates": [-15.891830582928051, -54.151296464935186]}}, {"type": "Feature", "properties": {"norad_id": 34560, "name": "COSMOS 2251 DEB", "group": "cosmos-2251-debris", "lat": -61.01927150291944, "lon": 126.70300090149806, "alt_km": 656.237637182775, "timestamp": "2025-12-04T15:47:54.493708+00:00", "meta": {"OBJECT_NAME": "COSMOS 2251 DEB", "OBJECT_ID": "1993-036UW", "EPOCH": "2025-12-03T06:37:21.000000", "MEAN_MOTION": 14.71719361, "ECCENTRICITY": 0.0015384, "INCLINATION": 74.0159, "RA_OF_ASC_NODE": 160.5584, "ARG_OF_PERICENTER": 241.2457, "MEAN_ANOMALY": 292.2217, "EPHEMERIS_TYPE": 0, "CLASSIFICATION_TYPE": "U", "NORAD_CAT_ID": 34560, "ELEMENT_SET_NO": 999, "REV_AT_EPOCH": 88112, "BSTAR": 0.0026421, "MEAN_MOTION_DOT": 0.00016519, "MEAN_MOTION_DDOT": 0}, "tle": {"line1": "1 34560U 93036UW  25337.27593750  .00016519  00000+0  26421-2 0  9995", "line2": "2 34560  74.0159 160.5584 0015384 241.2457 292.2217 14.71719361881126"}}, "geometry": {"type": "Point", "coordinates": [126.70300090149806, -61.01927150291944]}}, {"type": "Feature", "properties": {"norad_id": 34563, "name": "COSMOS 2251 DEB", "group": "cosmos-2251-debris", "lat": 71.29376844075516, "lon": -83.50687874473219, "alt_km": 735.9114972883417, "timestamp": "2025-12-04T15:47:54.493719+00:00", "meta": {"OBJECT_NAME": "COSMOS 2251 DEB", "OBJECT_ID": "1993-036UZ", "EPOCH": "2025-12-03T11:30:53.615808", "MEAN_MOTION": 14.46460045, "ECCENTRICITY": 0.00137712, "INCLINATION": 74.0388, "RA_OF_ASC_NODE": 220.9949, "ARG_OF_PERICENTER": 315.3305, "MEAN_ANOMALY": 110.513, "EPHEMERIS_TYPE": 0, "CLASSIFICATION_TYPE": "U", "NORAD_CAT_ID": 34563, "ELEMENT_SET_NO": 999, "REV_AT_EPOCH": 88063, "BSTAR": 0.0007235832, "MEAN_MOTION_DOT": 2.579e-05, "MEAN_MOTION_DDOT": 0}, "tle": {"line1": "1 34563U 93036UZ  25337.47978722  .00002579  00000+0  72358-3 0  9998", "line2": "2 34563  74.0388 220.9949 0013771 315.3305 110.5130 14.46460045880637"}}, "geometry": {"type": "Point", "coordinates": [-83.50687874473219, 71.29376844075516]}}, {"type": "Feature", "properties": {"norad_id": 34564, "name": "COSMOS 2251 DEB", "group": "cosmos-2251-debris", "lat": 26.6402960319169, "lon": -98.77933559795379, "alt_km": 743.348037124114, "timestamp": "2025-12-04T15:47:54.493729+00:00", "meta": {"OBJECT_NAME": "COSMOS 2251 DEB", "OBJECT_ID": "1993-036VA", "EPOCH": "2025-12-04T00:44:09.151008", "MEAN_MOTION": 14.40666327, "ECCENTRICITY": 0.00186555, "INCLINATION": 74.0328, "RA_OF_ASC_NODE": 254.1236, "ARG_OF_PERICENTER": 359.6637, "MEAN_ANOMALY": 14.4157, "EPHEMERIS_TYPE": 0, "CLASSIFICATION_TYPE": "U", "NORAD_CAT_ID": 34564, "ELEMENT_SET_NO": 999, "REV_AT_EPOCH": 87881, "BSTAR": 0.0004986491, "MEAN_MOTION_DOT": 1.569e-05, "MEAN_MOTION_DDOT": 0}, "tle": {"line1": "1 34564U 93036VA  25338.03066147  .00001569  00000+0  49865-3 0  9996", "line2": "2 34564  74.0328 254.1236 0018655 359.6637  14.4157 14.40666327878818"}}, "geometry": {"type": "Point", "coordinates": [-98.77933559795379, 26.6402960319169]}}, {"type": "Feature", "properties": {"norad_id": 34567, "name": "COSMOS 2251 DEB", "group": "cosmos-2251-debris", "lat": -17.097998939766608, "lon": -3.6246895663012717, "alt_km": 781.3484713433854, "timestamp": "2025-12-04T15:47:54.493740+00:00", "meta": {"OBJECT_NAME": "COSMOS 2251 DEB", "OBJECT_ID": "1993-036VD", "EPOCH": "2025-12-04T07:17:21.689664", "MEAN_MOTION": 14.24003711, "ECCENTRICITY": 0.00746396, "INCLINATION": 74.04, "RA_OF_ASC_NODE": 171.9631, "ARG_OF_PERICENTER": 248.0055, "MEAN_ANOMALY": 293.5091, "EPHEMERIS_TYPE": 0, "CLASSIFICATION_TYPE": "U", "NORAD_CAT_ID": 34567, "ELEMENT_SET_NO": 999, "REV_AT_EPOCH": 87004, "BSTAR": 0.00036683004, "MEAN_MOTION_DOT": 8.41e-06, "MEAN_MOTION_DDOT": 0}, "tle": {"line1": "1 34567U 93036VD  25338.30372326  .00000841  00000+0  36683-3 0  9994", "line2": "2 34567  74.0400 171.9631 0074639 248.0055 293.5091 14.24003711870044"}}, "geometry": {"type": "Point", "coordinates": [-3.6246895663012717, -17.097998939766608]}}, {"type": "Feature", "properties": {"norad_id": 34569, "name": "COSMOS 2251 DEB", "group": "cosmos-2251-debris", "lat": -17.51503962432197, "lon": -152.45011975588744, "alt_km": 758.2401703289379, "timestamp": "2025-12-04T15:47:54.493751+00:00", "meta": {"OBJECT_NAME": "COSMOS 2251 DEB", "OBJECT_ID": "1993-036VF", "EPOCH": "2025-12-04T01:15:58.788864", "MEAN_MOTION": 14.24714803, "ECCENTRICITY": 0.01568842, "INCLINATION": 73.9905, "RA_OF_ASC_NODE": 213.8429, "ARG_OF_PERICENTER": 44.2436, "MEAN_ANOMALY": 74.7931, "EPHEMERIS_TYPE": 0, "CLASSIFICATION_TYPE": "U", "NORAD_CAT_ID": 34569, "ELEMENT_SET_NO": 999, "REV_AT_EPOCH": 86844, "BSTAR": 0.00098375961, "MEAN_MOTION_DOT": 2.578e-05, "MEAN_MOTION_DDOT": 0}, "tle": {"line1": "1 34569U 93036VF  25338.05276376  .00002578  00000+0  98376-3 0  9992", "line2": "2 34569  73.9905 213.8429 0156884  44.2436  74.7931 14.24714803868441"}}, "geometry": {"type": "Point", "coordinates": [-152.45011975588744, -17.51503962432197]}}]}